{
  "norad_id": 52612,
  "name": "STARLINK-4002",
  "history": [
    {
      "epoch": "2026-03-28T14:03:28.450080Z",
      "apogee_km": 540.6212765785358,
      "perigee_km": 538.8710521379535,
      "latitude_deg": -5.905563313020138e-06,
      "longitude_deg": 157.42038025209345,
      "height_km": 540.6541338847848,
      "semi_major_axis_km": 6917.883164358244,
      "eccentricity": 0.0001265,
      "inclination_deg": 53.217,
      "raan_deg": 194.293,
      "arg_perigee_deg": 90.7971,
      "mean_anomaly_deg": 269.3166,
      "mean_motion_rev_day": 15.08839092
    }
  ]
}