{"fetched_at":"2026-03-30T06:02:59Z","count":15439,"tles":[{"name":"STARLINK-4002","line1":"1 52612U 22052Q   26087.58574595  .00000487  00000+0  48714-4 0  9994","line2":"2 52612  53.2170 194.2930 0001265  90.7971 269.3166 15.08839092213713","category":"Starlink"}]}